[{"OBJECT_NAME":"HYLAS 4","OBJECT_ID":"2018-033B","EPOCH":"2026-03-14T01:30:11.751264","MEAN_MOTION":1.00274037,"ECCENTRICITY":0.00012952,"INCLINATION":0.0195,"RA_OF_ASC_NODE":109.9894,"ARG_OF_PERICENTER":278.2626,"MEAN_ANOMALY":132.4031,"EPHEMERIS_TYPE":0,"CLASSIFICATION_TYPE":"U","NORAD_CAT_ID":43272,"ELEMENT_SET_NO":999,"REV_AT_EPOCH":2911,"BSTAR":0,"MEAN_MOTION_DOT":-2.34e-6,"MEAN_MOTION_DDOT":0},{"OBJECT_NAME":"IRNSS-1I","OBJECT_ID":"2018-035A","EPOCH":"2026-03-14T13:54:18.618624","MEAN_MOTION":1.00272307,"ECCENTRICITY":0.00191412,"INCLINATION":28.9518,"RA_OF_ASC_NODE":75.6565,"ARG_OF_PERICENTER":189.6246,"MEAN_ANOMALY":170.5508,"EPHEMERIS_TYPE":0,"CLASSIFICATION_TYPE":"U","NORAD_CAT_ID":43286,"ELEMENT_SET_NO":999,"REV_AT_EPOCH":2913,"BSTAR":0,"MEAN_MOTION_DOT":9.9e-7,"MEAN_MOTION_DDOT":0},{"OBJECT_NAME":"USA 283","OBJECT_ID":"2018-036A","EPOCH":"2026-03-13T04:17:38.746752","MEAN_MOTION":1.00268062,"ECCENTRICITY":0.0001223,"INCLINATION":0.0199,"RA_OF_ASC_NODE":142.9115,"ARG_OF_PERICENTER":275.2554,"MEAN_ANOMALY":311.1688,"EPHEMERIS_TYPE":0,"CLASSIFICATION_TYPE":"U","NORAD_CAT_ID":43339,"ELEMENT_SET_NO":999,"REV_AT_EPOCH":2432,"BSTAR":0,"MEAN_MOTION_DOT":0,"MEAN_MOTION_DDOT":0},{"OBJECT_NAME":"COSMOS 2526","OBJECT_ID":"2018-037A","EPOCH":"2026-03-13T00:36:02.388960","MEAN_MOTION":1.00274475,"ECCENTRICITY":4.924e-5,"INCLINATION":0.008,"RA_OF_ASC_NODE":164.2767,"ARG_OF_PERICENTER":244.9317,"MEAN_ANOMALY":258.5172,"EPHEMERIS_TYPE":0,"CLASSIFICATION_TYPE":"U","NORAD_CAT_ID":43432,"ELEMENT_SET_NO":999,"REV_AT_EPOCH":2899,"BSTAR":0,"MEAN_MOTION_DOT":-3.44e-6,"MEAN_MOTION_DDOT":0},{"OBJECT_NAME":"APSTAR-6C","OBJECT_ID":"2018-041A","EPOCH":"2026-03-12T14:21:31.078368","MEAN_MOTION":1.00269636,"ECCENTRICITY":0.000265,"INCLINATION":0.0629,"RA_OF_ASC_NODE":306.7775,"ARG_OF_PERICENTER":46.2952,"MEAN_ANOMALY":166.515,"EPHEMERIS_TYPE":0,"CLASSIFICATION_TYPE":"U","NORAD_CAT_ID":43450,"ELEMENT_SET_NO":999,"REV_AT_EPOCH":2884,"BSTAR":0,"MEAN_MOTION_DOT":-3.18e-6,"MEAN_MOTION_DDOT":0},{"OBJECT_NAME":"BANGABANDHUSAT-1","OBJECT_ID":"2018-044A","EPOCH":"2026-03-14T14:59:37.636224","MEAN_MOTION":1.00272924,"ECCENTRICITY":0.00024793,"INCLINATION":0.0202,"RA_OF_ASC_NODE":118.1725,"ARG_OF_PERICENTER":248.8728,"MEAN_ANOMALY":149.1872,"EPHEMERIS_TYPE":0,"CLASSIFICATION_TYPE":"U","NORAD_CAT_ID":43463,"ELEMENT_SET_NO":999,"REV_AT_EPOCH":2876,"BSTAR":0,"MEAN_MOTION_DOT":-3.63e-6,"MEAN_MOTION_DDOT":0},{"OBJECT_NAME":"SES-12","OBJECT_ID":"2018-049A","EPOCH":"2026-03-14T08:57:43.833600","MEAN_MOTION":1.00271135,"ECCENTRICITY":0.00018601,"INCLINATION":0.0192,"RA_OF_ASC_NODE":63.5919,"ARG_OF_PERICENTER":239.6464,"MEAN_ANOMALY":98.1739,"EPHEMERIS_TYPE":0,"CLASSIFICATION_TYPE":"U","NORAD_CAT_ID":43488,"ELEMENT_SET_NO":999,"REV_AT_EPOCH":2846,"BSTAR":0,"MEAN_MOTION_DOT":-2.7e-6,"MEAN_MOTION_DDOT":0},{"OBJECT_NAME":"FENGYUN 2H","OBJECT_ID":"2018-050A","EPOCH":"2026-03-14T14:01:10.459776","MEAN_MOTION":1.00272571,"ECCENTRICITY":0.00013366,"INCLINATION":2.7852,"RA_OF_ASC_NODE":80.2241,"ARG_OF_PERICENTER":170.5718,"MEAN_ANOMALY":210.7931,"EPHEMERIS_TYPE":0,"CLASSIFICATION_TYPE":"U","NORAD_CAT_ID":43491,"ELEMENT_SET_NO":999,"REV_AT_EPOCH":2849,"BSTAR":0,"MEAN_MOTION_DOT":-1.27e-6,"MEAN_MOTION_DDOT":0},{"OBJECT_NAME":"BEIDOU-2 IGSO-7","OBJECT_ID":"2018-057A","EPOCH":"2026-03-13T15:56:01.811904","MEAN_MOTION":1.00280738,"ECCENTRICITY":0.01005615,"INCLINATION":55.1863,"RA_OF_ASC_NODE":163.8949,"ARG_OF_PERICENTER":236.784,"MEAN_ANOMALY":122.3454,"EPHEMERIS_TYPE":0,"CLASSIFICATION_TYPE":"U","NORAD_CAT_ID":43539,"ELEMENT_SET_NO":999,"REV_AT_EPOCH":2817,"BSTAR":0,"MEAN_MOTION_DOT":-1.53e-6,"MEAN_MOTION_DDOT":0},{"OBJECT_NAME":"TELSTAR 19V","OBJECT_ID":"2018-059A","EPOCH":"2026-03-14T01:50:06.785088","MEAN_MOTION":1.00271403,"ECCENTRICITY":0.00010018,"INCLINATION":0.0197,"RA_OF_ASC_NODE":170.78,"ARG_OF_PERICENTER":268.0214,"MEAN_ANOMALY":57.4139,"EPHEMERIS_TYPE":0,"CLASSIFICATION_TYPE":"U","NORAD_CAT_ID":43562,"ELEMENT_SET_NO":999,"REV_AT_EPOCH":2819,"BSTAR":0,"MEAN_MOTION_DOT":-2.8e-6,"MEAN_MOTION_DDOT":0},{"OBJECT_NAME":"TELKOM 4 (MERAH PUTIH)","OBJECT_ID":"2018-064A","EPOCH":"2026-03-14T14:09:24.670368","MEAN_MOTION":1.00272552,"ECCENTRICITY":0.00020824,"INCLINATION":0.0179,"RA_OF_ASC_NODE":179.44,"ARG_OF_PERICENTER":222.5994,"MEAN_ANOMALY":90.5165,"EPHEMERIS_TYPE":0,"CLASSIFICATION_TYPE":"U","NORAD_CAT_ID":43587,"ELEMENT_SET_NO":999,"REV_AT_EPOCH":2793,"BSTAR":0,"MEAN_MOTION_DOT":-3.45e-6,"MEAN_MOTION_DDOT":0},{"OBJECT_NAME":"TELSTAR 18V","OBJECT_ID":"2018-069A","EPOCH":"2026-03-14T10:52:40.310112","MEAN_MOTION":1.00272233,"ECCENTRICITY":0.00021178,"INCLINATION":0.0181,"RA_OF_ASC_NODE":239.1072,"ARG_OF_PERICENTER":117.3545,"MEAN_ANOMALY":116.7669,"EPHEMERIS_TYPE":0,"CLASSIFICATION_TYPE":"U","NORAD_CAT_ID":43611,"ELEMENT_SET_NO":999,"REV_AT_EPOCH":2768,"BSTAR":0,"MEAN_MOTION_DOT":-2.94e-6,"MEAN_MOTION_DDOT":0},{"OBJECT_NAME":"AZERSPACE 2 (IS-38)","OBJECT_ID":"2018-074A","EPOCH":"2026-03-12T07:08:38.796864","MEAN_MOTION":1.00266327,"ECCENTRICITY":0.0002142,"INCLINATION":0.0162,"RA_OF_ASC_NODE":167.1748,"ARG_OF_PERICENTER":185.4789,"MEAN_ANOMALY":329.5515,"EPHEMERIS_TYPE":0,"CLASSIFICATION_TYPE":"U","NORAD_CAT_ID":43632,"ELEMENT_SET_NO":999,"REV_AT_EPOCH":2747,"BSTAR":0,"MEAN_MOTION_DOT":1.38e-6,"MEAN_MOTION_DDOT":0},{"OBJECT_NAME":"HORIZONS-3E","OBJECT_ID":"2018-074B","EPOCH":"2026-03-13T07:44:38.605056","MEAN_MOTION":1.00272801,"ECCENTRICITY":6.022e-5,"INCLINATION":0.0019,"RA_OF_ASC_NODE":309.6363,"ARG_OF_PERICENTER":51.3128,"MEAN_ANOMALY":95.1397,"EPHEMERIS_TYPE":0,"CLASSIFICATION_TYPE":"U","NORAD_CAT_ID":43633,"ELEMENT_SET_NO":999,"REV_AT_EPOCH":2738,"BSTAR":0,"MEAN_MOTION_DOT":-3.1e-7,"MEAN_MOTION_DDOT":0},{"OBJECT_NAME":"AEHF-4 (USA 288)","OBJECT_ID":"2018-079A","EPOCH":"2026-03-14T11:36:31.831200","MEAN_MOTION":1.00269771,"ECCENTRICITY":0.00639775,"INCLINATION":1.422,"RA_OF_ASC_NODE":355.4934,"ARG_OF_PERICENTER":359.1111,"MEAN_ANOMALY":284.0917,"EPHEMERIS_TYPE":0,"CLASSIFICATION_TYPE":"U","NORAD_CAT_ID":43651,"ELEMENT_SET_NO":999,"REV_AT_EPOCH":2734,"BSTAR":0,"MEAN_MOTION_DOT":-2.74e-6,"MEAN_MOTION_DDOT":0},{"OBJECT_NAME":"BEIDOU-3 G1","OBJECT_ID":"2018-085A","EPOCH":"2026-03-13T07:30:13.029120","MEAN_MOTION":1.00265903,"ECCENTRICITY":0.00020953,"INCLINATION":2.8312,"RA_OF_ASC_NODE":100.0786,"ARG_OF_PERICENTER":8.4898,"MEAN_ANOMALY":314.822,"EPHEMERIS_TYPE":0,"CLASSIFICATION_TYPE":"U","NORAD_CAT_ID":43683,"ELEMENT_SET_NO":999,"REV_AT_EPOCH":2709,"BSTAR":0,"MEAN_MOTION_DOT":-2.79e-6,"MEAN_MOTION_DDOT":0},{"OBJECT_NAME":"GSAT-29","OBJECT_ID":"2018-089A","EPOCH":"2026-03-14T13:54:18.618624","MEAN_MOTION":1.00275637,"ECCENTRICITY":0.0001565,"INCLINATION":0.0334,"RA_OF_ASC_NODE":262.7344,"ARG_OF_PERICENTER":92.4847,"MEAN_ANOMALY":80.6303,"EPHEMERIS_TYPE":0,"CLASSIFICATION_TYPE":"U","NORAD_CAT_ID":43698,"ELEMENT_SET_NO":999,"REV_AT_EPOCH":2683,"BSTAR":0,"MEAN_MOTION_DOT":8.3e-7,"MEAN_MOTION_DDOT":0}]
